0 IRIDIUM 33 DEB
1 33865U 97051AJ  13282.33467663  .00007951  00000-0  23835-2 0  3563
2 33865 086.3571 122.2279 0055514 354.7427 058.7583 14.41799962243865
0 IRIDIUM 33 DEB
1 33865U 97051AJ  13283.50956481  .00006930  00000-0  20766-2 0  3571
2 33865 086.3573 121.7254 0055346 350.8767 037.0018 14.41813764244031
0 IRIDIUM 33 DEB
1 33865U 97051AJ  13286.03228689  .00005786  00000-0  17326-2 0  3592
2 33865 086.3569 120.6461 0055019 342.5573 171.3581 14.41837865244398
0 IRIDIUM 33 DEB
1 33865U 97051AJ  13287.06638087  .00005919  00000-0  17723-2 0  3604
2 33865 086.3566 120.2040 0054916 339.1436 138.9656 14.41847569244540
0 IRIDIUM 33 DEB
1 33865U 97051AJ  13288.51167008  .00009578  00000-0  28688-2 0  3613
2 33865 086.3560 119.5856 0054766 334.3254 081.0633 14.41871963244759
0 IRIDIUM 33 DEB
1 33865U 97051AJ  13289.77476957  .00009562  00000-0  28635-2 0  3624
2 33865 086.3559 119.0451 0054622 330.0746 157.6076 14.41886797244935
0 IRIDIUM 33 DEB
1 33865U 97051AJ  13291.49604020  .00007807  00000-0  23366-2 0  3637
2 33865 086.3557 118.3087 0054456 324.3196 092.5197 14.41910821245185
0 IRIDIUM 33 DEB
1 33865U 97051AJ  13292.81547576  .00007945  00000-0  23774-2 0  3643
2 33865 086.3559 117.7439 0054356 319.8745 101.6887 14.41927446245379
0 IRIDIUM 33 DEB
1 33865U 97051AJ  13294.00591994  .00008489  00000-0  25395-2 0  3655
2 33865 086.3561 117.2344 0054257 315.8643 161.3317 14.41942896245541
0 IRIDIUM 33 DEB
1 33865U 97051AJ  13295.04806481  .00008865  00000-0  26516-2 0  3665
2 33865 086.3563 116.7886 0054187 312.3389 171.2187 14.41955969245695
